STARLINK-2566
1 28287C 21036M   21325.13717598  .00002793  00000-0  18719-3 0  3258
2 28287  53.0541 287.6032 0001754  70.0334 233.0519 15.06385904    16
